start=new Date('2023-03-26T00:00:00.000Z').valueOf();
sats=[{"COUNTRY_CODE":"US","SEMIMAJOR_AXIS":"6917.981","NORAD_CAT_ID":"52562","MEAN_ANOMALY":"278.7597","OBJECT_NAME":"STARLINK-3957","EPHEMERIS_TYPE":"0","BSTAR":"-0.00068030000000","TIME_SYSTEM":"UTC","MEAN_ELEMENT_THEORY":"SGP4","REV_AT_EPOCH":"4856","SITE":"AFWTR","CENTER_NAME":"EARTH","CLASSIFICATION_TYPE":"U","MEAN_MOTION":"15.08807087","PERIAPSIS":"539.024","RCS_SIZE":"LARGE","FILE":"3871104","OBJECT_TYPE":"PAYLOAD","MEAN_MOTION_DOT":"-0.00011089","APOAPSIS":"540.668","ECCENTRICITY":"0.00011880","PERIOD":"95.440","REF_FRAME":"TEME","INCLINATION":"53.2154","RA_OF_ASC_NODE":"286.6598","TLE_LINE1":"1 52562U 22051AF  23084.86168635 -.00011089  00000-0 -68030-3 0  9991","GP_ID":"228872397","TLE_LINE2":"2 52562  53.2154 286.6598 0001188  81.3529 278.7597 15.08807087 48564","LAUNCH_DATE":"2022-05-13","MEAN_MOTION_DDOT":"0.0000000000000","EPOCH":"2023-03-25T20:40:49.700640","ARG_OF_PERICENTER":"81.3529","DECAY_DATE":null,"OBJECT_ID":"2022-051AF","ELEMENT_SET_NO":"999"},{"OBJECT_NAME":"STARLINK-3942","MEAN_ANOMALY":"258.4635","EPHEMERIS_TYPE":"0","SEMIMAJOR_AXIS":"6917.899","NORAD_CAT_ID":"52563","COUNTRY_CODE":"US","CLASSIFICATION_TYPE":"U","MEAN_MOTION":"15.08833865","RCS_SIZE":"LARGE","FILE":"3871104","PERIAPSIS":"539.010","CENTER_NAME":"EARTH","REV_AT_EPOCH":"4836","SITE":"AFWTR","BSTAR":"-0.00010890000000","MEAN_ELEMENT_THEORY":"SGP4","TIME_SYSTEM":"UTC","TLE_LINE1":"1 52563U 22051AG  23084.92101850 -.00002020  00000-0 -10890-3 0  9991","RA_OF_ASC_NODE":"301.3896","INCLINATION":"53.2158","GP_ID":"228873148","REF_FRAME":"TEME","APOAPSIS":"540.518","PERIOD":"95.438","ECCENTRICITY":"0.00010900","MEAN_MOTION_DOT":"-0.00002020","OBJECT_TYPE":"PAYLOAD","OBJECT_ID":"2022-051AG","ELEMENT_SET_NO":"999","EPOCH":"2023-03-25T22:06:15.998400","ARG_OF_PERICENTER":"101.6479","DECAY_DATE":null,"MEAN_MOTION_DDOT":"0.0000000000000","TLE_LINE2":"2 52563  53.2158 301.3896 0001090 101.6479 258.4635 15.08833865 48366","LAUNCH_DATE":"2022-05-13"},{"GP_ID":"228871896","RA_OF_ASC_NODE":"301.4283","INCLINATION":"53.2148","TLE_LINE1":"1 52564U 22051AH  23084.91462024  .00013243  00000-0  84992-3 0  9995","REF_FRAME":"TEME","ECCENTRICITY":"0.00012000","PERIOD":"95.441","APOAPSIS":"540.751","OBJECT_TYPE":"PAYLOAD","MEAN_MOTION_DOT":"0.00013243","ELEMENT_SET_NO":"999","OBJECT_ID":"2022-051AH","DECAY_DATE":null,"ARG_OF_PERICENTER":"100.6923","EPOCH":"2023-03-25T21:57:03.188736","MEAN_MOTION_DDOT":"0.0000000000000","LAUNCH_DATE":"2022-05-13","TLE_LINE2":"2 52564  53.2148 301.4283 0001200 100.6923 259.4205 15.08782658 48360","EPHEMERIS_TYPE":"0","MEAN_ANOMALY":"259.4205","OBJECT_NAME":"STARLINK-3959","SEMIMAJOR_AXIS":"6918.056","NORAD_CAT_ID":"52564","COUNTRY_CODE":"US","PERIAPSIS":"539.090","FILE":"3871104","RCS_SIZE":"LARGE","MEAN_MOTION":"15.08782658","CLASSIFICATION_TYPE":"U","CENTER_NAME":"EARTH","SITE":"AFWTR","REV_AT_EPOCH":"4836","MEAN_ELEMENT_THEORY":"SGP4","TIME_SYSTEM":"UTC","BSTAR":"0.00084992000000"},{"OBJECT_NAME":"STARLINK-3911","MEAN_ANOMALY":"240.1402","EPHEMERIS_TYPE":"0","COUNTRY_CODE":"US","SEMIMAJOR_AXIS":"6918.036","NORAD_CAT_ID":"52565","CENTER_NAME":"EARTH","CLASSIFICATION_TYPE":"U","MEAN_MOTION":"15.08789134","RCS_SIZE":"LARGE","FILE":"3871104","PERIAPSIS":"539.044","BSTAR":"-0.00087430000000","TIME_SYSTEM":"UTC","MEAN_ELEMENT_THEORY":"SGP4","SITE":"AFWTR","REV_AT_EPOCH":"4856","REF_FRAME":"TEME","TLE_LINE1":"1 52565U 22051AJ  23084.86536531 -.00014156  00000-0 -87430-3 0  9991","INCLINATION":"53.2148","RA_OF_ASC_NODE":"286.6416","GP_ID":"228872146","OBJECT_TYPE":"PAYLOAD","MEAN_MOTION_DOT":"-0.00014156","APOAPSIS":"540.757","PERIOD":"95.441","ECCENTRICITY":"0.00012380","EPOCH":"2023-03-25T20:46:07.562784","ARG_OF_PERICENTER":"119.9713","DECAY_DATE":null,"OBJECT_ID":"2022-051AJ","ELEMENT_SET_NO":"999","TLE_LINE2":"2 52565  53.2148 286.6416 0001238 119.9713 240.1402 15.08789134 48568","LAUNCH_DATE":"2022-05-13","MEAN_MOTION_DDOT":"0.0000000000000"},{"FILE":"3871070","RCS_SIZE":"LARGE","PERIAPSIS":"539.144","MEAN_MOTION":"15.08798300","CLASSIFICATION_TYPE":"U","CENTER_NAME":"EARTH","REV_AT_EPOCH":"4843","SITE":"AFWTR","TIME_SYSTEM":"UTC","MEAN_ELEMENT_THEORY":"SGP4","BSTAR":"-0.00076022000000","EPHEMERIS_TYPE":"0","OBJECT_NAME":"STARLINK-3938","MEAN_ANOMALY":"257.6127","NORAD_CAT_ID":"52566","SEMIMAJOR_AXIS":"6918.008","COUNTRY_CODE":"US","ELEMENT_SET_NO":"999","OBJECT_ID":"2022-051AK","DECAY_DATE":null,"ARG_OF_PERICENTER":"102.4983","EPOCH":"2023-03-25T21:23:52.674432","MEAN_MOTION_DDOT":"0.0000000000000","LAUNCH_DATE":"2022-05-13","TLE_LINE2":"2 52566  53.2137 301.5249 0001054 102.4983 257.6127 15.08798300 48438","GP_ID":"228848523","TLE_LINE1":"1 52566U 22051AK  23084.89158188 -.00012352  00000-0 -76022-3 0  9994","INCLINATION":"53.2137","RA_OF_ASC_NODE":"301.5249","REF_FRAME":"TEME","ECCENTRICITY":"0.00010540","PERIOD":"95.440","APOAPSIS":"540.602","MEAN_MOTION_DOT":"-0.00012352","OBJECT_TYPE":"PAYLOAD"},{"TLE_LINE2":"2 52567  53.2157 286.6742 0001178 114.5763 245.5352 15.08805527 48569","LAUNCH_DATE":"2022-05-13","MEAN_MOTION_DDOT":"0.0000000000000","ARG_OF_PERICENTER":"114.5763","EPOCH":"2023-03-25T20:35:30.690240","DECAY_DATE":null,"OBJECT_ID":"2022-051AL","ELEMENT_SET_NO":"999","OBJECT_TYPE":"PAYLOAD","MEAN_MOTION_DOT":"0.00011696","APOAPSIS":"540.666","PERIOD":"95.440","ECCENTRICITY":"0.00011780","REF_FRAME":"TEME","RA_OF_ASC_NODE":"286.6742","INCLINATION":"53.2157","TLE_LINE1":"1 52567U 22051AL  23084.85799410  .00011696  00000-0  75244-3 0  9993","GP_ID":"228872648","BSTAR":"0.00075244000000","MEAN_ELEMENT_THEORY":"SGP4","TIME_SYSTEM":"UTC","REV_AT_EPOCH":"4856","SITE":"AFWTR","CENTER_NAME":"EARTH","CLASSIFICATION_TYPE":"U","MEAN_MOTION":"15.08805527","PERIAPSIS":"539.036","RCS_SIZE":"LARGE","FILE":"3871104","COUNTRY_CODE":"US","NORAD_CAT_ID":"52567","SEMIMAJOR_AXIS":"6917.986","MEAN_ANOMALY":"245.5352","OBJECT_NAME":"STARLINK-3929","EPHEMERIS_TYPE":"0"},{"SEMIMAJOR_AXIS":"6917.955","NORAD_CAT_ID":"52568","COUNTRY_CODE":"US","OBJECT_NAME":"STARLINK-3930","MEAN_ANOMALY":"273.6257","EPHEMERIS_TYPE":"0","SITE":"AFWTR","REV_AT_EPOCH":"4856","BSTAR":"-0.00050626000000","MEAN_ELEMENT_THEORY":"SGP4","TIME_SYSTEM":"UTC","MEAN_MOTION":"15.08815553","CLASSIFICATION_TYPE":"U","RCS_SIZE":"LARGE","FILE":"3871104","PERIAPSIS":"539.095","CENTER_NAME":"EARTH","APOAPSIS":"540.545","PERIOD":"95.439","ECCENTRICITY":"0.00010480","MEAN_MOTION_DOT":"-0.00008330","OBJECT_TYPE":"PAYLOAD","TLE_LINE1":"1 52568U 22051AM  23084.84696588 -.00008330  00000-0 -50626-3 0  9995","RA_OF_ASC_NODE":"286.7248","INCLINATION":"53.2137","GP_ID":"228871396","REF_FRAME":"TEME","MEAN_MOTION_DDOT":"0.0000000000000","TLE_LINE2":"2 52568  53.2137 286.7248 0001048  86.4855 273.6257 15.08815553 48561","LAUNCH_DATE":"2022-05-13","OBJECT_ID":"2022-051AM","ELEMENT_SET_NO":"999","EPOCH":"2023-03-25T20:19:37.852032","ARG_OF_PERICENTER":"86.4855","DECAY_DATE":null},{"CENTER_NAME":"EARTH","CLASSIFICATION_TYPE":"U","MEAN_MOTION":"15.08793204","PERIAPSIS":"538.824","RCS_SIZE":"LARGE","FILE":"3871104","BSTAR":"-0.00106950000000","TIME_SYSTEM":"UTC","MEAN_ELEMENT_THEORY":"SGP4","SITE":"AFWTR","REV_AT_EPOCH":"4856","MEAN_ANOMALY":"233.4172","OBJECT_NAME":"STARLINK-3927","EPHEMERIS_TYPE":"0","COUNTRY_CODE":"US","NORAD_CAT_ID":"52569","SEMIMAJOR_AXIS":"6918.023","ARG_OF_PERICENTER":"126.6962","EPOCH":"2023-03-25T20:30:14.136192","DECAY_DATE":null,"OBJECT_ID":"2022-051AN","ELEMENT_SET_NO":"999","TLE_LINE2":"2 52569  53.2150 286.6960 0001539 126.6962 233.4172 15.08793204 48566","LAUNCH_DATE":"2022-05-13","MEAN_MOTION_DDOT":"0.0000000000000","REF_FRAME":"TEME","INCLINATION":"53.2150","RA_OF_ASC_NODE":"286.6960","TLE_LINE1":"1 52569U 22051AN  23084.85433028 -.00017247  00000-0 -10695-2 0  9993","GP_ID":"228871646","OBJECT_TYPE":"PAYLOAD","MEAN_MOTION_DOT":"-0.00017247","APOAPSIS":"540.953","ECCENTRICITY":"0.00015390","PERIOD":"95.441"},{"TIME_SYSTEM":"UTC","MEAN_ELEMENT_THEORY":"SGP4","BSTAR":"-0.00073114000000","SITE":"AFWTR","REV_AT_EPOCH":"4857","CENTER_NAME":"EARTH","PERIAPSIS":"539.038","RCS_SIZE":"LARGE","FILE":"3871104","CLASSIFICATION_TYPE":"U","MEAN_MOTION":"15.08805800","COUNTRY_CODE":"US","NORAD_CAT_ID":"52570","SEMIMAJOR_AXIS":"6917.985","EPHEMERIS_TYPE":"0","MEAN_ANOMALY":"251.4693","OBJECT_NAME":"STARLINK-3924","LAUNCH_DATE":"2022-05-13","TLE_LINE2":"2 52570  53.2148 286.4420 0001173 108.6426 251.4693 15.08805800 48578","MEAN_MOTION_DDOT":"0.0000000000000","DECAY_DATE":null,"EPOCH":"2023-03-25T21:49:43.109472","ARG_OF_PERICENTER":"108.6426","ELEMENT_SET_NO":"999","OBJECT_ID":"2022-051AP","MEAN_MOTION_DOT":"-0.00011894","OBJECT_TYPE":"PAYLOAD","PERIOD":"95.440","ECCENTRICITY":"0.00011730","APOAPSIS":"540.661","REF_FRAME":"TEME","GP_ID":"228872398","RA_OF_ASC_NODE":"286.4420","INCLINATION":"53.2148","TLE_LINE1":"1 52570U 22051AP  23084.90952673 -.00011894  00000-0 -73114-3 0  9991"},{"OBJECT_TYPE":"PAYLOAD","MEAN_MOTION_DOT":"0.00014646","PERIOD":"95.441","ECCENTRICITY":"0.00011910","APOAPSIS":"540.739","REF_FRAME":"TEME","GP_ID":"228872147","INCLINATION":"53.2155","RA_OF_ASC_NODE":"286.7048","TLE_LINE1":"1 52574U 22051AQ  23084.85064595  .00014646  00000-0  93779-3 0  9991","LAUNCH_DATE":"2022-05-13","TLE_LINE2":"2 52574  53.2155 286.7048 0001191 118.8969 241.2143 15.08784578 48568","MEAN_MOTION_DDOT":"0.0000000000000","DECAY_DATE":null,"ARG_OF_PERICENTER":"118.8969","EPOCH":"2023-03-25T20:24:55.810080","ELEMENT_SET_NO":"999","OBJECT_ID":"2022-051AQ","COUNTRY_CODE":"US","NORAD_CAT_ID":"52574","SEMIMAJOR_AXIS":"6918.050","EPHEMERIS_TYPE":"0","MEAN_ANOMALY":"241.2143","OBJECT_NAME":"STARLINK-3901","MEAN_ELEMENT_THEORY":"SGP4","TIME_SYSTEM":"UTC","BSTAR":"0.00093779000000","SITE":"AFWTR","REV_AT_EPOCH":"4856","CENTER_NAME":"EARTH","PERIAPSIS":"539.091","RCS_SIZE":"LARGE","FILE":"3871104","CLASSIFICATION_TYPE":"U","MEAN_MOTION":"15.08784578"}];
